[{"OBJECT_NAME":"STARLINK-5886","OBJECT_ID":"2023-058AK","EPOCH":"2026-03-09T23:38:35.364192","MEAN_MOTION":15.05648558,"ECCENTRICITY":0.00023097,"INCLINATION":97.6046,"RA_OF_ASC_NODE":71.5502,"ARG_OF_PERICENTER":89.8875,"MEAN_ANOMALY":270.2617,"EPHEMERIS_TYPE":0,"CLASSIFICATION_TYPE":"U","NORAD_CAT_ID":56350,"ELEMENT_SET_NO":999,"REV_AT_EPOCH":15824,"BSTAR":9.494342e-6,"MEAN_MOTION_DOT":7.6e-7,"MEAN_MOTION_DDOT":0},{"OBJECT_NAME":"JILIN-01 KUANFU 02B 3","OBJECT_ID":"2024-169C","EPOCH":"2026-03-09T22:06:48.862368","MEAN_MOTION":15.0924242,"ECCENTRICITY":0.00160506,"INCLINATION":97.5557,"RA_OF_ASC_NODE":159.7436,"ARG_OF_PERICENTER":304.8201,"MEAN_ANOMALY":55.1517,"EPHEMERIS_TYPE":0,"CLASSIFICATION_TYPE":"U","NORAD_CAT_ID":61191,"ELEMENT_SET_NO":999,"REV_AT_EPOCH":8085,"BSTAR":0.00039569069,"MEAN_MOTION_DOT":6.253e-5,"MEAN_MOTION_DDOT":0}]
